{
"type": "FeatureCollection",
"name": "Kec_Ulaweng",
"crs": { "type": "name", "properties": { "name": "urn:ogc:def:crs:OGC:1.3:CRS84" } },
"features": [
{ "type": "Feature", "properties": { "OBJECTID": 85222.0, "NAMOBJ": "Ulaweng", "FCODE": "BA03070040", "REMARK": "Batas Indikatif | Verifikasi Teknis 2024 (Surat Keterangan Nomor 19.17/PBWNR/IGD.04.05/12/2024) | BA Monev Nomor 14.8/PBWNR/IGD.04.05/11/2024", "METADATA": "TASWIL1000020260612DESAKEL_AR", "SRS_ID": "4326", "KDBBPS": null, "KDCBPS": null, "KDCPUM": "73.08.14", "KDEBPS": null, "KDEPUM": "73.08.14.2005", "KDPBPS": null, "KDPKAB": "73.08", "KDPPUM": "73", "LUASWH": 4.9784800868673962, "TIPADM": 1.0, "WADMKC": "Ulaweng", "WADMKD": "Ulaweng", "WADMKK": "Bone", "WADMPR": "Sulawesi Selatan", "WIADKC": null, "WIADKK": null, "WIADPR": null, "WIADKD": null, "UUPP": null, "Status": "Batas Indikatif", "LastSync": "LapakGIS.com" }, "geometry": { "type": "MultiPolygon", "coordinates": [ [ [ [ 120.143542794000041, -4.553832832999944, 0.0 ], [ 120.143415779000065, -4.553960007999933, 0.0 ], [ 120.143247970000061, -4.554106997999952, 0.0 ], [ 120.143052218000093, -4.554188481999972, 0.0 ], [ 120.142663219000042, -4.554342058999964, 0.0 ], [ 120.142560250000088, -4.554396764999979, 0.0 ], [ 120.14250275500001, -4.554432480999935, 0.0 ], [ 120.142466740000032, -4.554475471999979, 0.0 ], [ 120.142442617000029, -4.554532886999937, 0.0 ], [ 120.142437545, -4.55460715199996, 0.0 ], [ 120.142446895000035, -4.554659908999952, 0.0 ], [ 120.142473012000096, -4.554703145999952, 0.0 ], [ 120.142518197000072, -4.554758440999933, 0.0 ], [ 120.142582497000035, -4.554813811999963, 0.0 ], [ 120.142730201000063, -4.554988793999939, 0.0 ], [ 120.142872182000019, -4.55518183099997, 0.0 ], [ 120.143171615000028, -4.555643710999959, 0.0 ], [ 120.143288263000045, -4.555789382999933, 0.0 ], [ 120.143299654000089, -4.555803606999973, 0.0 ], [ 120.143359721000024, -4.555925282999965, 0.0 ], [ 120.143408513000054, -4.556027938999932, 0.0 ], [ 120.143460923000021, -4.556172354999944, 0.0 ], [ 120.143498257000033, -4.556301529999928, 0.0 ], [ 120.143528022000055, -4.556430675999934, 0.0 ], [ 120.143557694000037, -4.556507727999929, 0.0 ], [ 120.143588836000049, -4.556564204999972, 0.0 ], [ 120.14362523300008, -4.556614149999973, 0.0 ], [ 120.143669525000064, -4.556649709999931, 0.0 ], [ 120.143717785000035, -4.55667349099997, 0.0 ], [ 120.143759527000043, -4.556693314999961, 0.0 ], [ 120.143810435000091, -4.556709243999933, 0.0 ], [ 120.143895318000091, -4.556725307999955, 0.0 ], [ 120.144009586000038, -4.556762829999968, 0.0 ], [ 120.144180188000064, -4.556845254999928, 0.0 ], [ 120.144272005000062, -4.556900997999946, 0.0 ], [ 120.14435332700009, -4.55695142299993, 0.0 ], [ 120.144434646000036, -4.557001849999949, 0.0 ], [ 120.144505425000034, -4.557057507999957, 0.0 ], [ 120.144555213000103, -4.557102534999956, 0.0 ], [ 120.144599656000082, -4.557168635999972, 0.0 ], [ 120.144641500000034, -4.557226815999968, 0.0 ], [ 120.144686795000098, -4.557310794999978, 0.0 ], [ 120.14470208900002, -4.557370563999939, 0.0 ], [ 120.144716027000072, -4.557447199999956, 0.0 ], [ 120.144717039000057, -4.557518594999976, 0.0 ], [ 120.144716730000027, -4.557596471999943, 0.0 ], [ 120.1447290750001, -4.557759450999981, 0.0 ], [ 120.144722263000062, -4.557834561999925, 0.0 ], [ 120.144700783000076, -4.557911247999925, 0.0 ], [ 120.144672790000072, -4.557987907999973, 0.0 ], [ 120.144641486000069, -4.558077621999928, 0.0 ], [ 120.144619994000095, -4.558170023999935, 0.0 ], [ 120.144598501000019, -4.558249976999946, 0.0 ], [ 120.14457867200008, -4.558321768999974, 0.0 ], [ 120.144545759000039, -4.558406576999971, 0.0 ], [ 120.144506409000087, -4.55847175699995, 0.0 ], [ 120.14444096200009, -4.558547775999955, 0.0 ], [ 120.144369394000023, -4.558618974999945, 0.0 ], [ 120.144279343000107, -4.558713158999979, 0.0 ], [ 120.144193888000018, -4.558807361999925, 0.0 ], [ 120.144129184, -4.558887810999977, 0.0 ], [ 120.144085222000058, -4.558956812999952, 0.0 ], [ 120.144057345000078, -4.559028185999978, 0.0 ], [ 120.144059434000042, -4.559081230999936, 0.0 ], [ 120.144075350000094, -4.559127411999953, 0.0 ], [ 120.144141797000088, -4.55918762999994, 0.0 ], [ 120.144284951000031, -4.559260452999979, 0.0 ], [ 120.144355888000064, -4.559291273999975, 0.0 ], [ 120.144434912000065, -4.559330270999965, 0.0 ], [ 120.144505776000074, -4.559379412999931, 0.0 ], [ 120.144564378000041, -4.559448866999958, 0.0 ], [ 120.14462294100008, -4.559528498999953, 0.0 ], [ 120.144800554000085, -4.559715554999968, 0.0 ], [ 120.144973219, -4.559861696999974, 0.0 ], [ 120.145061444000021, -4.559924556999931, 0.0 ], [ 120.145131680000077, -4.559961131999955, 0.0 ], [ 120.145222028000035, -4.559995770999933, 0.0 ], [ 120.145304424000074, -4.560008196999945, 0.0 ], [ 120.145380817000046, -4.560012533999952, 0.0 ], [ 120.14544313500005, -4.560016813999937, 0.0 ], [ 120.14551954500007, -4.560017117999962, 0.0 ], [ 120.14561414700006, -4.559993296999949, 0.0 ], [ 120.145686693000016, -4.55995325799995, 0.0 ], [ 120.14579561100004, -4.559869001999971, 0.0 ], [ 120.146036887000037, -4.559708547999946, 0.0 ], [ 120.146097300000065, -4.559686606999946, 0.0 ], [ 120.14618181600008, -4.559670811999979, 0.0 ], [ 120.146260237000092, -4.559671123999976, 0.0 ], [ 120.146304402000055, -4.559689447999972, 0.0 ], [ 120.146336470000051, -4.559715788999938, 0.0 ], [ 120.14634839200005, -4.559752130999925, 0.0 ], [ 120.146356205000075, -4.559810638999977, 0.0 ], [ 120.146355902000096, -4.559887260999972, 0.0 ], [ 120.146311689000072, -4.560380518999978, 0.0 ], [ 120.146310425000024, -4.560708964999947, 0.0 ], [ 120.146327915000029, -4.560818875999928, 0.0 ], [ 120.146349532000045, -4.560892855999953, 0.0 ], [ 120.146371225000053, -4.560946864999949, 0.0 ], [ 120.146398863000059, -4.561008884999978, 0.0 ], [ 120.146438544000034, -4.561046988999976, 0.0 ], [ 120.14651412, -4.561073250999925, 0.0 ], [ 120.146559910000065, -4.561077427999976, 0.0 ], [ 120.146617657000093, -4.561079653999968, 0.0 ], [ 120.146747669000092, -4.561078348999956, 0.0 ], [ 120.146911053000053, -4.561059026999942, 0.0 ], [ 120.147070566000025, -4.561011730999951, 0.0 ], [ 120.147281977000034, -4.56093468399996, 0.0 ], [ 120.147734659000093, -4.560784702999968, 0.0 ], [ 120.147823257000027, -4.560758825999926, 0.0 ], [ 120.147924897000053, -4.560741254999925, 0.0 ], [ 120.148066314000062, -4.560737823999943, 0.0 ], [ 120.1481878620001, -4.56072232899993, 0.0 ], [ 120.148303519000024, -4.560684843999979, 0.0 ], [ 120.14841122100006, -4.560645329999943, 0.0 ], [ 120.148530981000022, -4.560577902999967, 0.0 ], [ 120.148626814000067, -4.560518369999954, 0.0 ], [ 120.148711560000038, -4.56047235799997, 0.0 ], [ 120.148811318000071, -4.560426819999975, 0.0 ], [ 120.148930882000059, -4.560409319999962, 0.0 ], [ 120.149030436000089, -4.560415707999937, 0.0 ], [ 120.149074515000052, -4.560431979999976, 0.0 ], [ 120.149704299000064, -4.560759466999968, 0.0 ], [ 120.150709403000064, -4.561438591999945, 0.0 ], [ 120.151147052000056, -4.561734300999944, 0.0 ], [ 120.151063578000048, -4.562158622999959, 0.0 ], [ 120.150822903000062, -4.562340054999936, 0.0 ], [ 120.149131464000106, -4.563615139999968, 0.0 ], [ 120.146604851, -4.564477160999957, 0.0 ], [ 120.143751266000095, -4.565993127999946, 0.0 ], [ 120.141492177000032, -4.567063222999934, 0.0 ], [ 120.139678962000062, -4.568757538999932, 0.0 ], [ 120.138727767000091, -4.569203411999979, 0.0 ], [ 120.137553634000028, -4.57018433199994, 0.0 ], [ 120.135383721000039, -4.572473144999947, 0.0 ], [ 120.133999364000033, -4.573110388999964, 0.0 ], [ 120.133889835000105, -4.573160806999965, 0.0 ], [ 120.131638390000035, -4.574197185999935, 0.0 ], [ 120.128665905000048, -4.574999756999944, 0.0 ], [ 120.128101134000076, -4.57589150299998, 0.0 ], [ 120.126258191000034, -4.57705077199995, 0.0 ], [ 120.124296353000091, -4.578774812999939, 0.0 ], [ 120.122839834000047, -4.579339584999957, 0.0 ], [ 120.121026620000066, -4.579815182999937, 0.0 ], [ 120.11967413800005, -4.580766377999964, 0.0 ], [ 120.117742023, -4.581777022999972, 0.0 ], [ 120.114472290000094, -4.582371519999981, 0.0 ], [ 120.111618705000069, -4.582698492999953, 0.0 ], [ 120.107784199000093, -4.582609318999971, 0.0 ], [ 120.106149333000076, -4.582490418999953, 0.0 ], [ 120.104692814000032, -4.581895921999944, 0.0 ], [ 120.102389138000035, -4.580261055999927, 0.0 ], [ 120.102071942000066, -4.579943857999979, 0.0 ], [ 120.101992370000062, -4.579068690999975, 0.0 ], [ 120.101609709000059, -4.577901961999942, 0.0 ], [ 120.101177648000089, -4.576977776999968, 0.0 ], [ 120.099508816000025, -4.574193597999965, 0.0 ], [ 120.099334667000107, -4.57390305499996, 0.0 ], [ 120.099222849000057, -4.573780470999964, 0.0 ], [ 120.099119404000021, -4.572383970999965, 0.0 ], [ 120.099208581000084, -4.571165251999957, 0.0 ], [ 120.099119583000061, -4.57096428899996, 0.0 ], [ 120.098813616000029, -4.571246861999953, 0.0 ], [ 120.098298804000024, -4.572058634999962, 0.0 ], [ 120.098166572000082, -4.572378453999931, 0.0 ], [ 120.098103127000059, -4.572525243999962, 0.0 ], [ 120.097997805000091, -4.572666612999967, 0.0 ], [ 120.097814043000085, -4.57277615299995, 0.0 ], [ 120.097436214000027, -4.572953179999956, 0.0 ], [ 120.097173585000064, -4.573057959999971, 0.0 ], [ 120.09648977900008, -4.573186936999946, 0.0 ], [ 120.09606941100003, -4.573158880999927, 0.0 ], [ 120.095624253000096, -4.572761817999947, 0.0 ], [ 120.095536920000086, -4.572641390999934, 0.0 ], [ 120.095049283000094, -4.571968971999979, 0.0 ], [ 120.094632528000034, -4.571045019999929, 0.0 ], [ 120.094582304000028, -4.570465106999961, 0.0 ], [ 120.094148116000042, -4.569895111999926, 0.0 ], [ 120.09352535700009, -4.569475165999961, 0.0 ], [ 120.092516634000049, -4.568904574999976, 0.0 ], [ 120.091536813000062, -4.568542810999929, 0.0 ], [ 120.090824486000088, -4.568211947999941, 0.0 ], [ 120.090201851000074, -4.567762186999971, 0.0 ], [ 120.089907141000026, -4.567105047999974, 0.0 ], [ 120.089909909000085, -4.566419302999975, 0.0 ], [ 120.089932904000079, -4.565984457999946, 0.0 ], [ 120.089971923, -4.565246568999953, 0.0 ], [ 120.089974809000068, -4.56453100899995, 0.0 ], [ 120.089859474000036, -4.563636074999977, 0.0 ], [ 120.089624117000085, -4.563008994999961, 0.0 ], [ 120.089507147000063, -4.562853761999975, 0.0 ], [ 120.089150878000055, -4.562380949999977, 0.0 ], [ 120.088441089000071, -4.561423973999979, 0.0 ], [ 120.088117726000064, -4.560498381999935, 0.0 ], [ 120.087794248000023, -4.559602605999942, 0.0 ], [ 120.087188110000056, -4.558132235999949, 0.0 ], [ 120.087027026000101, -4.557741478999958, 0.0 ], [ 120.086651896000035, -4.55710086199997, 0.0 ], [ 120.086512263000031, -4.556603222999968, 0.0 ], [ 120.086491903000024, -4.555798354999979, 0.0 ], [ 120.086635734000083, -4.555254526999931, 0.0 ], [ 120.087313975000029, -4.554319889999931, 0.0 ], [ 120.087770637000062, -4.553678949999949, 0.0 ], [ 120.087871594000035, -4.553518425999926, 0.0 ], [ 120.088173877000031, -4.55303779299993, 0.0 ], [ 120.088577982000061, -4.552182372999937, 0.0 ], [ 120.088687410000034, -4.551540024999952, 0.0 ], [ 120.08825829500006, -4.548983472999964, 0.0 ], [ 120.088258822000057, -4.54885233899995, 0.0 ], [ 120.088260448000028, -4.548447693999947, 0.0 ], [ 120.08809562600004, -4.547911238999973, 0.0 ], [ 120.087646261000032, -4.547541066999941, 0.0 ], [ 120.087112876000106, -4.547304500999928, 0.0 ], [ 120.086395880000055, -4.547050447999936, 0.0 ], [ 120.085745747000033, -4.546779921999928, 0.0 ], [ 120.085279353000033, -4.546493397999939, 0.0 ], [ 120.08511304700005, -4.546325291999949, 0.0 ], [ 120.084624079000037, -4.545399594999935, 0.0 ], [ 120.084524896000062, -4.545258419999925, 0.0 ], [ 120.084519706000037, -4.54524046399996, 0.0 ], [ 120.084488453000063, -4.545132314999933, 0.0 ], [ 120.08445211500009, -4.544833874999938, 0.0 ], [ 120.084455214000059, -4.544780995999929, 0.0 ], [ 120.084523082000032, -4.543623031999971, 0.0 ], [ 120.084491506000063, -4.542917029999956, 0.0 ], [ 120.084338040000034, -4.542543483999964, 0.0 ], [ 120.084262185000057, -4.542139174999932, 0.0 ], [ 120.084263176000036, -4.54189241499995, 0.0 ], [ 120.084263560000068, -4.541797331999931, 0.0 ], [ 120.084006841000019, -4.541100716999949, 0.0 ], [ 120.083847907000063, -4.540853357999936, 0.0 ], [ 120.083615008000038, -4.540642704999925, 0.0 ], [ 120.08351648200005, -4.54058867599997, 0.0 ], [ 120.083320399000058, -4.54048114699998, 0.0 ], [ 120.083062795000046, -4.540295065999942, 0.0 ], [ 120.082916161000071, -4.540047754999932, 0.0 ], [ 120.082880493000062, -4.53973921499994, 0.0 ], [ 120.08293109400006, -4.539394014999971, 0.0 ], [ 120.083117059000074, -4.539037027999939, 0.0 ], [ 120.083413699000062, -4.538692823999952, 0.0 ], [ 120.083421118000047, -4.538687606999929, 0.0 ], [ 120.083919525000056, -4.538337130999935, 0.0 ], [ 120.084437506000086, -4.538018493999971, 0.0 ], [ 120.085066399000084, -4.53765096099994, 0.0 ], [ 120.085486244000094, -4.536967231999938, 0.0 ], [ 120.085816715000078, -4.536235912999928, 0.0 ], [ 120.085869030000026, -4.53575610799993, 0.0 ], [ 120.0858709580001, -4.535276100999965, 0.0 ], [ 120.0856208350001, -4.534820337999975, 0.0 ], [ 120.085017474000097, -4.534489466999958, 0.0 ], [ 120.084236838000038, -4.53438525599995, 0.0 ], [ 120.083985745000064, -4.534373291999941, 0.0 ], [ 120.084048906000021, -4.533741666999958, 0.0 ], [ 120.084167807000085, -4.531452853999951, 0.0 ], [ 120.084271842000021, -4.530590832999962, 0.0 ], [ 120.082963949000032, -4.529045140999926, 0.0 ], [ 120.081715505000034, -4.528272294999965, 0.0 ], [ 120.079278068, -4.527885871999956, 0.0 ], [ 120.078059351000093, -4.527231924999967, 0.0 ], [ 120.076275858000031, -4.526280729999939, 0.0 ], [ 120.074640991000024, -4.526013205999959, 0.0 ], [ 120.073726819000058, -4.525678010999968, 0.0 ], [ 120.073172834000047, -4.525732502999972, 0.0 ], [ 120.071292414000027, -4.525728791999938, 0.0 ], [ 120.069496798000046, -4.52606835499995, 0.0 ], [ 120.068128886000068, -4.526237204999973, 0.0 ], [ 120.066077015000019, -4.526490472999967, 0.0 ], [ 120.064110791000076, -4.526658127999951, 0.0 ], [ 120.058071794000057, -4.525972574999969, 0.0 ], [ 120.05817894300003, -4.525631253999961, 0.0 ], [ 120.058512699000062, -4.524837127999945, 0.0 ], [ 120.058879374000071, -4.524076279999974, 0.0 ], [ 120.059975157000054, -4.521894080999971, 0.0 ], [ 120.060285233000059, -4.521378090999974, 0.0 ], [ 120.060361674000092, -4.521201217999931, 0.0 ], [ 120.060407722000036, -4.521049534999975, 0.0 ], [ 120.060380191000036, -4.520496249999951, 0.0 ], [ 120.060317313000041, -4.519361641999978, 0.0 ], [ 120.060237183000027, -4.518567490999942, 0.0 ], [ 120.060344551000071, -4.51777409999994, 0.0 ], [ 120.060722646000045, -4.517002698999931, 0.0 ], [ 120.06080875300006, -4.516313671999967, 0.0 ], [ 120.060810688000061, -4.515833207999947, 0.0 ], [ 120.060770624000043, -4.515436131999934, 0.0 ], [ 120.060224373000096, -4.514642766999941, 0.0 ], [ 120.060167098000079, -4.514228782999965, 0.0 ], [ 120.060022116000027, -4.513637121999977, 0.0 ], [ 120.059758775000091, -4.513163193999958, 0.0 ], [ 120.059656181000037, -4.51286541199994, 0.0 ], [ 120.059554852000019, -4.51257129399994, 0.0 ], [ 120.059379685000067, -4.51215683199996, 0.0 ], [ 120.059292817000028, -4.511772280999935, 0.0 ], [ 120.059235927000032, -4.511100533999979, 0.0 ], [ 120.059240212000077, -4.510036619999937, 0.0 ], [ 120.059257270000103, -4.509460392999927, 0.0 ], [ 120.059421501000088, -4.50892909199996, 0.0 ], [ 120.059851799000057, -4.507840101999932, 0.0 ], [ 120.059983860000102, -4.507409365999933, 0.0 ], [ 120.060083019000103, -4.507056911999939, 0.0 ], [ 120.060084122000035, -4.506782471999941, 0.0 ], [ 120.060058741000034, -4.506612473999951, 0.0 ], [ 120.059840249000104, -4.506341929999962, 0.0 ], [ 120.059062623000045, -4.505785643999957, 0.0 ], [ 120.058570774000032, -4.505116075999979, 0.0 ], [ 120.058344752000039, -4.504562025999974, 0.0 ], [ 120.058194273000026, -4.504141798999967, 0.0 ], [ 120.056760558000065, -4.502402962999952, 0.0 ], [ 120.055776259000027, -4.501486783999951, 0.0 ], [ 120.054669899000032, -4.501570148999974, 0.0 ], [ 120.054483169000036, -4.50133346299998, 0.0 ], [ 120.054675755000062, -4.501159423999979, 0.0 ], [ 120.054775505000066, -4.501056037999945, 0.0 ], [ 120.054865117000077, -4.500922568999954, 0.0 ], [ 120.054909187000021, -4.500815115999956, 0.0 ], [ 120.054975426000055, -4.500536562999969, 0.0 ], [ 120.054998436, -4.500349617999973, 0.0 ], [ 120.055021845000056, -4.500258089999932, 0.0 ], [ 120.055049332000067, -4.500194369999974, 0.0 ], [ 120.055108545000053, -4.500134484999933, 0.0 ], [ 120.055389291000097, -4.499929203999955, 0.0 ], [ 120.056137814000067, -4.499525922999965, 0.0 ], [ 120.057063142000061, -4.499063234999937, 0.0 ], [ 120.05741571100009, -4.498852321999948, 0.0 ], [ 120.057655895000039, -4.49865798899998, 0.0 ], [ 120.057879682000021, -4.498383172999979, 0.0 ], [ 120.057974930000114, -4.498108899999977, 0.0 ], [ 120.058065345000045, -4.497381364999967, 0.0 ], [ 120.058034950000092, -4.496329582999977, 0.0 ], [ 120.058058942000116, -4.495609195999975, 0.0 ], [ 120.058073463000028, -4.495173184999942, 0.0 ], [ 120.05805530300006, -4.494986362999953, 0.0 ], [ 120.057986071000073, -4.494840432999979, 0.0 ], [ 120.057460762, -4.494343776999926, 0.0 ], [ 120.05725381600007, -4.494086609999954, 0.0 ], [ 120.057184225000015, -4.493854673999977, 0.0 ], [ 120.057183293000094, -4.493631047999941, 0.0 ], [ 120.057331103000024, -4.493239635999942, 0.0 ], [ 120.057639318000042, -4.492895723999936, 0.0 ], [ 120.057773677000114, -4.492779426999959, 0.0 ], [ 120.057938678000028, -4.492704420999928, 0.0 ], [ 120.058308641000053, -4.492565673999934, 0.0 ], [ 120.058906741000101, -4.492448838999962, 0.0 ], [ 120.059071694000068, -4.492362399999934, 0.0 ], [ 120.059219358000064, -4.492230304999964, 0.0 ], [ 120.059287014, -4.49204709299994, 0.0 ], [ 120.059370368000032, -4.491532277999966, 0.0 ], [ 120.059443044000091, -4.49118899399997, 0.0 ], [ 120.059617618000061, -4.490673795999953, 0.0 ], [ 120.059682034000048, -4.490531905999944, 0.0 ], [ 120.059688632000075, -4.490395221999961, 0.0 ], [ 120.059644871000046, -4.490222797999934, 0.0 ], [ 120.059370830000034, -4.489864345999933, 0.0 ], [ 120.05914735500005, -4.489591981999979, 0.0 ], [ 120.059038802000032, -4.489362294999978, 0.0 ], [ 120.059023917000104, -4.489232896999965, 0.0 ], [ 120.059051742000065, -4.489024206999943, 0.0 ], [ 120.059079622000013, -4.488961055999937, 0.0 ], [ 120.059192814000085, -4.488795642999946, 0.0 ], [ 120.05942601400011, -4.488585321999949, 0.0 ], [ 120.059621304000075, -4.488387847999945, 0.0 ], [ 120.059728082000106, -4.488203425999927, 0.0 ], [ 120.059802980000086, -4.487955703999944, 0.0 ], [ 120.05986624500008, -4.487590008999973, 0.0 ], [ 120.059957408000059, -4.487327791999974, 0.0 ], [ 120.060010767000108, -4.48707127299997, 0.0 ], [ 120.060061043000019, -4.486855575999925, 0.0 ], [ 120.060157858000025, -4.486637151999957, 0.0 ], [ 120.060315589000083, -4.486448142999961, 0.0 ], [ 120.06039772400004, -4.486264677999941, 0.0 ], [ 120.060413046, -4.486066339999979, 0.0 ], [ 120.060355668000057, -4.485876477999966, 0.0 ], [ 120.060205227000097, -4.485694979999948, 0.0 ], [ 120.060043348000022, -4.485466755999937, 0.0 ], [ 120.059999579000078, -4.485381443999927, 0.0 ], [ 120.059930852000093, -4.485247494999953, 0.0 ], [ 120.059879195, -4.485080981999943, 0.0 ], [ 120.059839899000053, -4.484730720999949, 0.0 ], [ 120.059785675000057, -4.484479603999944, 0.0 ], [ 120.059690448000083, -4.48430124999993, 0.0 ], [ 120.059589722000055, -4.484047015999977, 0.0 ], [ 120.059390325000095, -4.483751538999968, 0.0 ], [ 120.05916447300001, -4.483528903999968, 0.0 ], [ 120.058985067000094, -4.483321036999939, 0.0 ], [ 120.058910325000056, -4.483110674999978, 0.0 ], [ 120.058890965000046, -4.482862605999969, 0.0 ], [ 120.058897527000113, -4.482829072999948, 0.0 ], [ 120.058920216000047, -4.482713178999973, 0.0 ], [ 120.058935480000059, -4.48263521399997, 0.0 ], [ 120.058935336000104, -4.482614389999981, 0.0 ], [ 120.058933626000112, -4.482372633999944, 0.0 ], [ 120.058932823000077, -4.482324782999967, 0.0 ], [ 120.058928927000011, -4.482092530999978, 0.0 ], [ 120.058959256000094, -4.481780479999941, 0.0 ], [ 120.0590590810001, -4.481532890999972, 0.0 ], [ 120.059179380000046, -4.481253293999941, 0.0 ], [ 120.059224106000102, -4.480973393999932, 0.0 ], [ 120.059207591000018, -4.48074283699998, 0.0 ], [ 120.059118475000105, -4.48049156999997, 0.0 ], [ 120.058962428000086, -4.480260459999954, 0.0 ], [ 120.058871074000081, -4.480079898999975, 0.0 ], [ 120.058847056000104, -4.480032421999965, 0.0 ], [ 120.058774952000022, -4.479799610999976, 0.0 ], [ 120.058763823000049, -4.479763680999952, 0.0 ], [ 120.05873314400003, -4.479439709999951, 0.0 ], [ 120.058737310000083, -4.479124633999959, 0.0 ], [ 120.058784921000097, -4.478850579999971, 0.0 ], [ 120.058943407000015, -4.478471941999942, 0.0 ], [ 120.059037333000106, -4.478247665999959, 0.0 ], [ 120.059090635000075, -4.478002808999975, 0.0 ], [ 120.059094565, -4.477746087999947, 0.0 ], [ 120.059072246000028, -4.477512588999957, 0.0 ], [ 120.05904118, -4.477284901999951, 0.0 ], [ 120.059044987000107, -4.477060265999967, 0.0 ], [ 120.059074928000086, -4.476841579999927, 0.0 ], [ 120.059090635000075, -4.476546969999958, 0.0 ], [ 120.059065733000011, -4.476231774999974, 0.0 ], [ 120.058979534000059, -4.47598052099994, 0.0 ], [ 120.058887625000011, -4.47570006899997, 0.0 ], [ 120.058883651000087, -4.475553572999956, 0.0 ], [ 120.058880029000079, -4.475419955999939, 0.0 ], [ 120.058872902000076, -4.475020232999952, 0.0 ], [ 120.058872921000102, -4.475015196999948, 0.0 ], [ 120.058873648000031, -4.474833509999939, 0.0 ], [ 120.058862891000103, -4.474614651999957, 0.0 ], [ 120.058858078000071, -4.474363721999964, 0.0 ], [ 120.058862548000093, -4.474017603999926, 0.0 ], [ 120.058889193000027, -4.473853281999936, 0.0 ], [ 120.05897746900007, -4.473585232999937, 0.0 ], [ 120.059085785000093, -4.473396024999943, 0.0 ], [ 120.059254965000036, -4.473250827999948, 0.0 ], [ 120.059447247000094, -4.473146568999937, 0.0 ], [ 120.05949497000006, -4.473120439999946, 0.0 ], [ 120.059648265000078, -4.47303650799995, 0.0 ], [ 120.059770884000045, -4.47290279799995, 0.0 ], [ 120.059844165000072, -4.472751387999949, 0.0 ], [ 120.059867365000059, -4.472544424999967, 0.0 ], [ 120.059871299000065, -4.472509331999959, 0.0 ], [ 120.059871444, -4.472473634999972, 0.0 ], [ 120.059872128000052, -4.472302193999951, 0.0 ], [ 120.059858542000029, -4.472062900999958, 0.0 ], [ 120.059789618000082, -4.471852561999981, 0.0 ], [ 120.059770098000058, -4.471645341999931, 0.0 ], [ 120.059770830000048, -4.47146153999995, 0.0 ], [ 120.059771681000029, -4.471248562999961, 0.0 ], [ 120.059755410000093, -4.470953829999928, 0.0 ], [ 120.059689388000038, -4.470743504999973, 0.0 ], [ 120.059599839000043, -4.470613347999972, 0.0 ], [ 120.05957666900008, -4.470579673999964, 0.0 ], [ 120.059399777000067, -4.470471012999951, 0.0 ], [ 120.059111466000104, -4.470360489999962, 0.0 ], [ 120.059092111000041, -4.470353070999977, 0.0 ], [ 120.058944335000092, -4.470232857999974, 0.0 ], [ 120.058857634000105, -4.470107059999975, 0.0 ], [ 120.058803011, -4.469952205999959, 0.0 ], [ 120.058795150000037, -4.469851237999933, 0.0 ], [ 120.058786427000086, -4.469739156999935, 0.0 ], [ 120.05871766100006, -4.469487982999965, 0.0 ], [ 120.058596392000027, -4.469280354999967, 0.0 ], [ 120.058434426000076, -4.469075467999971, 0.0 ], [ 120.05829570800006, -4.468870685999946, 0.0 ], [ 120.058206298000073, -4.468695275999949, 0.0 ], [ 120.05818096400003, -4.46848511099995, 0.0 ], [ 120.05817567500003, -4.468413970999961, 0.0 ], [ 120.058161657000028, -4.468225379999978, 0.0 ], [ 120.058090521000054, -4.467980127999965, 0.0 ], [ 120.05808710000008, -4.467968334999966, 0.0 ], [ 120.057962865000036, -4.467778191999969, 0.0 ], [ 120.057803772000057, -4.467579167999929, 0.0 ], [ 120.057641816000114, -4.467371369999967, 0.0 ], [ 120.057534909000083, -4.467207561999942, 0.0 ], [ 120.057525133000013, -4.467190235999965, 0.0 ], [ 120.057430997000097, -4.467023340999958, 0.0 ], [ 120.05737071100009, -4.466833454999971, 0.0 ], [ 120.057348250000018, -4.466634978999934, 0.0 ], [ 120.057343142000036, -4.466456987999948, 0.0 ], [ 120.057346795000058, -4.466270277999968, 0.0 ], [ 120.057376815000111, -4.466031161999979, 0.0 ], [ 120.057373772, -4.465966544999958, 0.0 ], [ 120.057371297000032, -4.465914018999968, 0.0 ], [ 120.057366094000031, -4.465803557999948, 0.0 ], [ 120.057331414000032, -4.465656386999967, 0.0 ], [ 120.057328932000019, -4.465645859999938, 0.0 ], [ 120.05726577400003, -4.465447216999962, 0.0 ], [ 120.057243301000085, -4.465251653999928, 0.0 ], [ 120.057244218000051, -4.465021171999979, 0.0 ], [ 120.057248199000014, -4.464752776999944, 0.0 ], [ 120.057249068000033, -4.464533962999951, 0.0 ], [ 120.057249942000112, -4.464315153999962, 0.0 ], [ 120.057259011000042, -4.464168231999963, 0.0 ], [ 120.057262366000032, -4.464113896999947, 0.0 ], [ 120.05729829500001, -4.463851466999927, 0.0 ], [ 120.057322335000094, -4.463656086999947, 0.0 ], [ 120.057323395000026, -4.463390600999958, 0.0 ], [ 120.057312777000107, -4.463136729999974, 0.0 ], [ 120.05731938200006, -4.462938368999971, 0.0 ], [ 120.057346251000013, -4.462760506999928, 0.0 ], [ 120.05744281300008, -4.462600426999927, 0.0 ], [ 120.057626475, -4.462469873999964, 0.0 ], [ 120.057833291000065, -4.462362758999973, 0.0 ], [ 120.05799937800009, -4.46226422999996, 0.0 ], [ 120.058130727000048, -4.462130549999927, 0.0 ], [ 120.058247879000078, -4.461909288999948, 0.0 ], [ 120.058321375000105, -4.461702438999964, 0.0 ], [ 120.058330958000056, -4.461486577999949, 0.0 ], [ 120.058386976000065, -4.461288416999935, 0.0 ], [ 120.058451687000115, -4.461099032999925, 0.0 ], [ 120.058527771000058, -4.46097096799997, 0.0 ], [ 120.058548565000024, -4.460860185999934, 0.0 ], [ 120.058546100000058, -4.460749306999958, 0.0 ], [ 120.058497238000086, -4.460609072999944, 0.0 ], [ 120.058436880000045, -4.460436695999931, 0.0 ], [ 120.05843182000001, -4.460247042999981, 0.0 ], [ 120.058464633000085, -4.460037110999963, 0.0 ], [ 120.05856136500006, -4.459836182999936, 0.0 ], [ 120.058579448000046, -4.459798714999977, 0.0 ], [ 120.058663953000064, -4.459623616999977, 0.0 ], [ 120.058696778000012, -4.45941077699996, 0.0 ], [ 120.05868294600009, -4.459232749999956, 0.0 ], [ 120.058654784000055, -4.459005065999975, 0.0 ], [ 120.058667146000062, -4.458821308999973, 0.0 ], [ 120.058743182000057, -4.458704921999981, 0.0 ], [ 120.058845281000117, -4.458617798999967, 0.0 ], [ 120.059023052000043, -4.458501817999945, 0.0 ], [ 120.059077355000113, -4.458447750999937, 0.0 ], [ 120.059111140000027, -4.458414112999947, 0.0 ], [ 120.059186494000073, -4.458339085999967, 0.0 ], [ 120.059338503000049, -4.458123796999928, 0.0 ], [ 120.059403321000104, -4.457908165999925, 0.0 ], [ 120.059412871000063, -4.457698142999959, 0.0 ], [ 120.059407934000092, -4.457479305999925, 0.0 ], [ 120.059379649000107, -4.457280795999964, 0.0 ], [ 120.059302144000071, -4.457035412999971, 0.0 ], [ 120.059218873000077, -4.456775422999954, 0.0 ], [ 120.059193561000029, -4.456562342999973, 0.0 ], [ 120.059191479000106, -4.456355192999979, 0.0 ], [ 120.059223963000022, -4.456226951999952, 0.0 ], [ 120.059367048000013, -4.456064138999977, 0.0 ], [ 120.059513031000051, -4.455904262999979, 0.0 ], [ 120.059569, -4.45571776099996, 0.0 ], [ 120.05954948100009, -4.455510538999931, 0.0 ], [ 120.059489139000107, -4.455332330999966, 0.0 ], [ 120.059460651000109, -4.45518633699993, 0.0 ], [ 120.059458600000085, -4.454970432999971, 0.0 ], [ 120.059473869000044, -4.454786693999949, 0.0 ], [ 120.059529976000022, -4.454565183999932, 0.0 ], [ 120.059586153000055, -4.454329091999966, 0.0 ], [ 120.059595978000061, -4.454051967999931, 0.0 ], [ 120.06000808500005, -4.453898126999945, 0.0 ], [ 120.060222949000035, -4.45382068999993, 0.0 ], [ 120.060264427000106, -4.45380008099994, 0.0 ], [ 120.060275884000021, -4.453794387999949, 0.0 ], [ 120.060398832000033, -4.453733302999979, 0.0 ], [ 120.060562609000044, -4.453623840999967, 0.0 ], [ 120.060711980000065, -4.45346049099993, 0.0 ], [ 120.060832514000026, -4.453191814999968, 0.0 ], [ 120.060875116000034, -4.45296088799995, 0.0 ], [ 120.060884844000043, -4.452908170999933, 0.0 ], [ 120.060917619000065, -4.452779996999936, 0.0 ], [ 120.064094024000042, -4.453511255999956, 0.0 ], [ 120.067570813000088, -4.45400793999994, 0.0 ], [ 120.070488831000034, -4.454597751999927, 0.0 ], [ 120.072072011000046, -4.454721922999965, 0.0 ], [ 120.076542167000071, -4.455249649999928, 0.0 ], [ 120.077582434000078, -4.455249649999928, 0.0 ], [ 120.077508788000046, -4.456593034999969, 0.0 ], [ 120.077440773000035, -4.457679269999971, 0.0 ], [ 120.077035364000039, -4.458146343999942, 0.0 ], [ 120.076120117000073, -4.458632688999955, 0.0 ], [ 120.075459828000021, -4.459098745999938, 0.0 ], [ 120.074970471000029, -4.459309834999942, 0.0 ], [ 120.074264595000045, -4.459949635999976, 0.0 ], [ 120.073856229000057, -4.461162332999947, 0.0 ], [ 120.073365773000091, -4.461650366999947, 0.0 ], [ 120.07285011700003, -4.462758434999955, 0.0 ], [ 120.072168247000036, -4.463309613999968, 0.0 ], [ 120.070975691000058, -4.464093093999963, 0.0 ], [ 120.069908024000028, -4.46655366899995, 0.0 ], [ 120.070734274000074, -4.46717366699994, 0.0 ], [ 120.071656227000062, -4.468067737999945, 0.0 ], [ 120.071986654000057, -4.469007506999958, 0.0 ], [ 120.072209994000104, -4.469987065999931, 0.0 ], [ 120.072780677000083, -4.471198385999969, 0.0 ], [ 120.073418847000084, -4.472058948999972, 0.0 ], [ 120.074085240000045, -4.472544244999938, 0.0 ], [ 120.074619305000056, -4.472693851999963, 0.0 ], [ 120.075206834000028, -4.472843672999943, 0.0 ], [ 120.076894481000068, -4.473080710999966, 0.0 ], [ 120.077911010000093, -4.472910488999958, 0.0 ], [ 120.07828569000003, -4.472804733999965, 0.0 ], [ 120.079210358000068, -4.472580236999931, 0.0 ], [ 120.079611825000029, -4.472461180999971, 0.0 ], [ 120.079772325000022, -4.47243500999997, 0.0 ], [ 120.080548477000093, -4.472210197999971, 0.0 ], [ 120.081470701000057, -4.472227283999928, 0.0 ], [ 120.083288575000097, -4.472221128999934, 0.0 ], [ 120.083929736000073, -4.472330936999981, 0.0 ], [ 120.085123797000051, -4.47221443799998, 0.0 ], [ 120.085766392000096, -4.471962273999964, 0.0 ], [ 120.086382569000079, -4.471629563999954, 0.0 ], [ 120.087373218000039, -4.47124471799998, 0.0 ], [ 120.087774634000084, -4.471139063999942, 0.0 ], [ 120.08808190100001, -4.471180506999929, 0.0 ], [ 120.089099142, -4.471265413999959, 0.0 ], [ 120.089874077000104, -4.47134893599997, 0.0 ], [ 120.090515082000024, -4.471498958999973, 0.0 ], [ 120.090842925000061, -4.471705002999954, 0.0 ], [ 120.091760588000056, -4.472202014999937, 0.0 ], [ 120.093148161000045, -4.472851048999928, 0.0 ], [ 120.094088557000077, -4.473478070999931, 0.0 ], [ 120.09573251900008, -4.474192473999949, 0.0 ], [ 120.096242496000059, -4.475031075999937, 0.0 ], [ 120.096733568000104, -4.475932138999951, 0.0 ], [ 120.09693439900002, -4.476152097999943, 0.0 ], [ 120.097303017000058, -4.476448586999936, 0.0 ], [ 120.097562612000047, -4.476685636999946, 0.0 ], [ 120.097797194, -4.476872012999934, 0.0 ], [ 120.098064897000086, -4.477184959999931, 0.0 ], [ 120.098366447000103, -4.477439035999964, 0.0 ], [ 120.098517254000058, -4.477557644999933, 0.0 ], [ 120.098795154000072, -4.477678255999933, 0.0 ], [ 120.099255818000074, -4.478076261999945, 0.0 ], [ 120.099607993000063, -4.478279962999977, 0.0 ], [ 120.099628694000103, -4.478297022999925, 0.0 ], [ 120.099701595000056, -4.477883915999939, 0.0 ], [ 120.100064446000033, -4.476214795999965, 0.0 ], [ 120.10035472900006, -4.474618245999977, 0.0 ], [ 120.100499869000032, -4.473094266999965, 0.0 ], [ 120.100790151000069, -4.472295991999943, 0.0 ], [ 120.101080433000106, -4.471715428999971, 0.0 ], [ 120.101153003000036, -4.471062294999967, 0.0 ], [ 120.101588425000045, -4.469973737999965, 0.0 ], [ 120.101733566, -4.46932060499995, 0.0 ], [ 120.10180613700004, -4.468449758999952, 0.0 ], [ 120.101957854000034, -4.466730283999937, 0.0 ], [ 120.102325032000067, -4.466767750999963, 0.0 ], [ 120.102861451000081, -4.466708148999942, 0.0 ], [ 120.104430971000056, -4.466608811999947, 0.0 ], [ 120.104732955000031, -4.466418085999976, 0.0 ], [ 120.106115722000027, -4.466195570999957, 0.0 ], [ 120.107244190000074, -4.466147888999956, 0.0 ], [ 120.107927627000095, -4.465877692999925, 0.0 ], [ 120.109008411000104, -4.465607496999951, 0.0 ], [ 120.109492110000019, -4.465428348999978, 0.0 ], [ 120.111893427000041, -4.46903032299997, 0.0 ], [ 120.112589083000103, -4.469725978999975, 0.0 ], [ 120.113231926000026, -4.468888481999954, 0.0 ], [ 120.113526464000074, -4.468033737999974, 0.0 ], [ 120.113619261000053, -4.467160032999971, 0.0 ], [ 120.114384915000073, -4.465748312999949, 0.0 ], [ 120.115148666000096, -4.464720366999927, 0.0 ], [ 120.11537570400003, -4.463802364999935, 0.0 ], [ 120.115513300000089, -4.462948235999932, 0.0 ], [ 120.115383259000055, -4.461916769999959, 0.0 ], [ 120.114880661000029, -4.460550091999949, 0.0 ], [ 120.11492729400004, -4.460410195999941, 0.0 ], [ 120.115016301000082, -4.460117748999949, 0.0 ], [ 120.115143452000098, -4.459532853999974, 0.0 ], [ 120.115194312000085, -4.458579220999979, 0.0 ], [ 120.115177297000059, -4.458472881999967, 0.0 ], [ 120.115092589000028, -4.457943464999971, 0.0 ], [ 120.114749282000048, -4.456125203999932, 0.0 ], [ 120.114533126000083, -4.455438587999936, 0.0 ], [ 120.114418690000093, -4.454561245999969, 0.0 ], [ 120.114164388000063, -4.453429600999925, 0.0 ], [ 120.114105898000048, -4.452180976999955, 0.0 ], [ 120.114268652000078, -4.45173340599996, 0.0 ], [ 120.114817944000038, -4.450512754999977, 0.0 ], [ 120.115031558000055, -4.450075354999967, 0.0 ], [ 120.11564188400007, -4.449546406999957, 0.0 ], [ 120.116252209000095, -4.449190383999962, 0.0 ], [ 120.116913395000097, -4.44887504899998, 0.0 ], [ 120.117401655000094, -4.448610574999975, 0.0 ], [ 120.117653417000042, -4.44848974699994, 0.0 ], [ 120.119762557000058, -4.448306342999956, 0.0 ], [ 120.12177999700009, -4.448398044999976, 0.0 ], [ 120.124439346000031, -4.448122939999962, 0.0 ], [ 120.126273381000033, -4.447481026999981, 0.0 ], [ 120.127507448000074, -4.447326768999972, 0.0 ], [ 120.127513772000043, -4.447318436999979, 0.0 ], [ 120.128045840000027, -4.446360066999944, 0.0 ], [ 120.128544181000052, -4.445583716999977, 0.0 ], [ 120.128875295000057, -4.445353176999959, 0.0 ], [ 120.129107153000064, -4.445171926999933, 0.0 ], [ 120.129818207000085, -4.444893189999959, 0.0 ], [ 120.130214274000082, -4.444944412999973, 0.0 ], [ 120.131508601000064, -4.445673026999941, 0.0 ], [ 120.132227233000094, -4.445994845999962, 0.0 ], [ 120.133091944000057, -4.445674272999952, 0.0 ], [ 120.135296449000066, -4.444954434999943, 0.0 ], [ 120.138040829000033, -4.444594515999938, 0.0 ], [ 120.140695234000077, -4.444324575999929, 0.0 ], [ 120.142494828000054, -4.445674272999952, 0.0 ], [ 120.144069473000059, -4.447158937999973, 0.0 ], [ 120.144403415000056, -4.447510454999929, 0.0 ], [ 120.144237355000087, -4.447579093999934, 0.0 ], [ 120.143832366000083, -4.448867071999928, 0.0 ], [ 120.143682650000073, -4.450643203999959, 0.0 ], [ 120.143269924000037, -4.451838423999959, 0.0 ], [ 120.143555939000066, -4.453193796999926, 0.0 ], [ 120.143678580000028, -4.455716917999951, 0.0 ], [ 120.144439742000031, -4.457883467999977, 0.0 ], [ 120.144381863000035, -4.459157841999968, 0.0 ], [ 120.144404238000106, -4.460220093999965, 0.0 ], [ 120.144187802000033, -4.461414188999925, 0.0 ], [ 120.143308216000037, -4.462924348999934, 0.0 ], [ 120.143039340000087, -4.46398546599994, 0.0 ], [ 120.142713540000045, -4.465360611999927, 0.0 ], [ 120.142711323000071, -4.466435518999958, 0.0 ], [ 120.142723566000086, -4.466552716999956, 0.0 ], [ 120.142813300000057, -4.467411696999932, 0.0 ], [ 120.1428389780001, -4.467657506999956, 0.0 ], [ 120.142539645000056, -4.470027155999958, 0.0 ], [ 120.142533470000103, -4.471620378999944, 0.0 ], [ 120.142503592000025, -4.472496547999981, 0.0 ], [ 120.142634742000041, -4.472815708999974, 0.0 ], [ 120.143321089000096, -4.473349472999928, 0.0 ], [ 120.144644020000101, -4.473593626999957, 0.0 ], [ 120.145331913000064, -4.473729082999967, 0.0 ], [ 120.145857711000076, -4.473776573999942, 0.0 ], [ 120.146518275000062, -4.473836237999933, 0.0 ], [ 120.147052864000102, -4.473410738999974, 0.0 ], [ 120.147503166000092, -4.472675263999975, 0.0 ], [ 120.147820987000046, -4.472111454999947, 0.0 ], [ 120.147875803000034, -4.472014212999966, 0.0 ], [ 120.147875240000076, -4.471882295999933, 0.0 ], [ 120.147870714000078, -4.470822703999943, 0.0 ], [ 120.14792998300004, -4.470069902999967, 0.0 ], [ 120.147998979000022, -4.469929910999952, 0.0 ], [ 120.148177774000033, -4.469567139999981, 0.0 ], [ 120.148363352000047, -4.469127356999934, 0.0 ], [ 120.148548661000063, -4.468624861999956, 0.0 ], [ 120.148671484000033, -4.468122636999965, 0.0 ], [ 120.148982565000097, -4.467807737999976, 0.0 ], [ 120.149232230000052, -4.467743951999978, 0.0 ], [ 120.149167603000024, -4.467242533999979, 0.0 ], [ 120.149164658000018, -4.466552712999942, 0.0 ], [ 120.148842964000096, -4.46629084999995, 0.0 ], [ 120.148474933000102, -4.465991269999961, 0.0 ], [ 120.148035944000071, -4.465616883999928, 0.0 ], [ 120.147917845000052, -4.465105499999936, 0.0 ], [ 120.147717642000089, -4.464238583999929, 0.0 ], [ 120.147588128000052, -4.463173032999975, 0.0 ], [ 120.147959552000088, -4.462356179999972, 0.0 ], [ 120.148457544000053, -4.461915055999953, 0.0 ], [ 120.149018554, -4.461599084999932, 0.0 ], [ 120.149182211000038, -4.460986507999962, 0.0 ], [ 120.149203063000073, -4.460908459999928, 0.0 ], [ 120.149452994000058, -4.460907385999974, 0.0 ], [ 120.149482955000053, -4.460913265999977, 0.0 ], [ 120.150078359000076, -4.461030123999933, 0.0 ], [ 120.150389703000087, -4.460777937999978, 0.0 ], [ 120.150263133000067, -4.460402209999927, 0.0 ], [ 120.149948846000029, -4.459964574999958, 0.0 ], [ 120.150009724000029, -4.45958804199995, 0.0 ], [ 120.150071405000062, -4.459399639999958, 0.0 ], [ 120.150693826000065, -4.458832558999973, 0.0 ], [ 120.150985587000037, -4.45857411399993, 0.0 ], [ 120.151191815000061, -4.458391435999943, 0.0 ], [ 120.151876985000058, -4.457886796999958, 0.0 ], [ 120.151811828000064, -4.457259957999952, 0.0 ], [ 120.151746672000058, -4.456633117999957, 0.0 ], [ 120.151694531000089, -4.455494315999943, 0.0 ], [ 120.151752531000056, -4.455389054999955, 0.0 ], [ 120.152406479000092, -4.454556758999956, 0.0 ], [ 120.152491803000089, -4.45448210099994, 0.0 ], [ 120.15279354900008, -4.454218072999936, 0.0 ], [ 120.153357674000063, -4.453724462999958, 0.0 ], [ 120.154219694000062, -4.452921891999949, 0.0 ], [ 120.154784465000034, -4.452267945999949, 0.0 ], [ 120.155289789000108, -4.451732897999932, 0.0 ], [ 120.155557312000042, -4.451495099999931, 0.0 ], [ 120.156716582000058, -4.451316749999933, 0.0 ], [ 120.157305584000028, -4.451257849999934, 0.0 ], [ 120.15747469400003, -4.45184241499993, 0.0 ], [ 120.157540386000051, -4.452594671999975, 0.0 ], [ 120.157916348000072, -4.452843901999927, 0.0 ], [ 120.15810379200002, -4.452843095999981, 0.0 ], [ 120.15853955800003, -4.452464952999946, 0.0 ], [ 120.159225787000082, -4.452211155999976, 0.0 ], [ 120.159538195000096, -4.452209811999978, 0.0 ], [ 120.15978812000003, -4.452208736999978, 0.0 ], [ 120.16072534400007, -4.452204705999975, 0.0 ], [ 120.161224390000029, -4.452014423999969, 0.0 ], [ 120.161846528000069, -4.451384632999975, 0.0 ], [ 120.162339877000022, -4.45109886299997, 0.0 ], [ 120.163609217000044, -4.452172918999963, 0.0 ], [ 120.164842924000027, -4.45320100899994, 0.0 ], [ 120.165205561000107, -4.453225184999951, 0.0 ], [ 120.166385060000039, -4.453303817999938, 0.0 ], [ 120.168235623000101, -4.453715053999929, 0.0 ], [ 120.171062868000035, -4.455051570999956, 0.0 ], [ 120.172193768000056, -4.45741617799996, 0.0 ], [ 120.172245582000073, -4.457602701999974, 0.0 ], [ 120.172254840000051, -4.45763603499995, 0.0 ], [ 120.172494182000037, -4.458497665999971, 0.0 ], [ 120.17269310800009, -4.459213796999961, 0.0 ], [ 120.172707814000091, -4.459266739999975, 0.0 ], [ 120.172707814000091, -4.461117301999934, 0.0 ], [ 120.172697674, -4.461198414999956, 0.0 ], [ 120.172502196000096, -4.462762244999965, 0.0 ], [ 120.172576219, -4.463206391999961, 0.0 ], [ 120.172786429000098, -4.462924520999934, 0.0 ], [ 120.173024375000068, -4.462882880999928, 0.0 ], [ 120.173518111000021, -4.462853137999957, 0.0 ], [ 120.173637086000099, -4.46285908599998, 0.0 ], [ 120.174053492000098, -4.463144621999959, 0.0 ], [ 120.173756059000084, -4.463864408999939, 0.0 ], [ 120.17459481800006, -4.464292711999974, 0.0 ], [ 120.174726911000107, -4.464055544999951, 0.0 ], [ 120.174916260000032, -4.46431877699996, 0.0 ], [ 120.175626144000034, -4.46476755499998, 0.0 ], [ 120.175706768000055, -4.464818523999952, 0.0 ], [ 120.176675833000104, -4.465302415999929, 0.0 ], [ 120.177238866000039, -4.465595564999944, 0.0 ], [ 120.176755606000029, -4.466271232999929, 0.0 ], [ 120.176391550000062, -4.466734038999959, 0.0 ], [ 120.17684840700008, -4.467067162999967, 0.0 ], [ 120.176810334000038, -4.467400287999965, 0.0 ], [ 120.176629495000043, -4.467990393999969, 0.0 ], [ 120.176458175000107, -4.468609053999955, 0.0 ], [ 120.176895996000098, -4.46869471399998, 0.0 ], [ 120.177200565000021, -4.468847, 0.0 ], [ 120.17757176300006, -4.468961213999933, 0.0 ], [ 120.177981030000069, -4.469208677999973, 0.0 ], [ 120.177628869000046, -4.469817819999946, 0.0 ], [ 120.178209458000083, -4.47016997999998, 0.0 ], [ 120.178342708000059, -4.470055765999973, 0.0 ], [ 120.178571136000073, -4.470160461999967, 0.0 ], [ 120.179104136000092, -4.470579247999979, 0.0 ], [ 120.179637133000028, -4.470826710999972, 0.0 ], [ 120.18003688400006, -4.47103610399995, 0.0 ], [ 120.18052229400007, -4.471245496999927, 0.0 ], [ 120.180874455000094, -4.471711870999968, 0.0 ], [ 120.181093364000048, -4.472301976999972, 0.0 ], [ 120.181145439000034, -4.472458204999953, 0.0 ], [ 120.182336355000075, -4.472504008999977, 0.0 ], [ 120.182988714000089, -4.472529099999974, 0.0 ], [ 120.186689836000028, -4.473762807999947, 0.0 ], [ 120.189671298, -4.476127414999951, 0.0 ], [ 120.191521861000069, -4.477977976999966, 0.0 ], [ 120.193578039000045, -4.480651010999964, 0.0 ], [ 120.194749836000028, -4.482115756999974, 0.0 ], [ 120.195222983, -4.482707190999975, 0.0 ], [ 120.195368384000062, -4.482997989999944, 0.0 ], [ 120.196492943000067, -4.485247107999953, 0.0 ], [ 120.19676511800003, -4.485791460999963, 0.0 ], [ 120.198718489000044, -4.488772921999953, 0.0 ], [ 120.200774670000101, -4.490520673999981, 0.0 ], [ 120.203242085000056, -4.492679662999933, 0.0 ], [ 120.2059151200001, -4.494427415999951, 0.0 ], [ 120.206380215000081, -4.494728825999971, 0.0 ], [ 120.206775910000033, -4.494926673999942, 0.0 ], [ 120.207141574000048, -4.494951051999976, 0.0 ], [ 120.207460773000093, -4.494972331999975, 0.0 ], [ 120.208099976000085, -4.495109303999925, 0.0 ], [ 120.209941488000027, -4.49573328799994, 0.0 ], [ 120.209941488000027, -4.496037669999964, 0.0 ], [ 120.209926802000041, -4.496228602999963, 0.0 ], [ 120.210474161000093, -4.496265452999978, 0.0 ], [ 120.211804910000069, -4.496285894999971, 0.0 ], [ 120.212844672000074, -4.496397261999959, 0.0 ], [ 120.214079229000049, -4.496529187999954, 0.0 ], [ 120.21551386200008, -4.496217930999933, 0.0 ], [ 120.216395103000082, -4.495935059999965, 0.0 ], [ 120.217320177000033, -4.495451291999927, 0.0 ], [ 120.218852084000105, -4.495116032999931, 0.0 ], [ 120.219421683000064, -4.494724401999974, 0.0 ], [ 120.219862671000101, -4.494523241999957, 0.0 ], [ 120.220085883000024, -4.494255647999978, 0.0 ], [ 120.220212125000103, -4.49456695799995, 0.0 ], [ 120.220921482000108, -4.496316246999925, 0.0 ], [ 120.221214516000032, -4.497186049999925, 0.0 ], [ 120.221869839000078, -4.498697320999952, 0.0 ], [ 120.222140079000042, -4.499567037999952, 0.0 ], [ 120.222299307000071, -4.500000003999958, 0.0 ], [ 120.222483852000096, -4.501498878999939, 0.0 ], [ 120.221662134000098, -4.50292430899998, 0.0 ], [ 120.219615672000032, -4.503935216999935, 0.0 ], [ 120.21928372900004, -4.504099189999977, 0.0 ], [ 120.218448736000028, -4.504439366999975, 0.0 ], [ 120.216492145000075, -4.505127653999978, 0.0 ], [ 120.213711524000018, -4.505677230999936, 0.0 ], [ 120.212487284000076, -4.506268914999964, 0.0 ], [ 120.211625365000032, -4.506605461999925, 0.0 ], [ 120.211462589, -4.506710163999969, 0.0 ], [ 120.211437300000057, -4.506726431999937, 0.0 ], [ 120.210516436000034, -4.50731875799994, 0.0 ], [ 120.209028982000063, -4.508437640999944, 0.0 ], [ 120.208487759000036, -4.50862267399998, 0.0 ], [ 120.208149876000107, -4.508717852999951, 0.0 ], [ 120.207774441000083, -4.508969757999978, 0.0 ], [ 120.207354239000097, -4.509476154999959, 0.0 ], [ 120.206604457000026, -4.510853533999978, 0.0 ], [ 120.206039686000054, -4.512101976999929, 0.0 ], [ 120.205517628000052, -4.512678041999948, 0.0 ], [ 120.205177666000054, -4.513053171999957, 0.0 ], [ 120.204583170000092, -4.513944917999936, 0.0 ], [ 120.20413996700006, -4.514436468999975, 0.0 ], [ 120.204050991000031, -4.514480901999946, 0.0 ], [ 120.20371689600006, -4.514647744999934, 0.0 ], [ 120.201108895000061, -4.516182836999974, 0.0 ], [ 120.198317841000062, -4.518015392999928, 0.0 ], [ 120.194752166000058, -4.519742540999971, 0.0 ], [ 120.194971110000097, -4.520109740999942, 0.0 ], [ 120.195177072000092, -4.520456829999944, 0.0 ], [ 120.195383122000067, -4.520780832999947, 0.0 ], [ 120.19540508800003, -4.521057950999932, 0.0 ], [ 120.195380635000106, -4.52142723299994, 0.0 ], [ 120.195241461000023, -4.521680639999943, 0.0 ], [ 120.195102020000036, -4.522003303999952, 0.0 ], [ 120.195101222000062, -4.522211075999962, 0.0 ], [ 120.195215585000028, -4.522419292999928, 0.0 ], [ 120.195463016000076, -4.522506629999953, 0.0 ], [ 120.194699655000022, -4.522832647999962, 0.0 ], [ 120.191786621, -4.52494311199996, 0.0 ], [ 120.189795057000083, -4.52521063599994, 0.0 ], [ 120.188308814000038, -4.52583485699995, 0.0 ], [ 120.185217431000069, -4.527261649999957, 0.0 ], [ 120.184942496000076, -4.52740509399996, 0.0 ], [ 120.183166416000063, -4.528331744999946, 0.0 ], [ 120.180892465000056, -4.530471933999934, 0.0 ], [ 120.179833119000023, -4.531385617999945, 0.0 ], [ 120.17892448300006, -4.532516457999975, 0.0 ], [ 120.178283488000034, -4.533009894999964, 0.0 ], [ 120.177414658000089, -4.534841486999937, 0.0 ], [ 120.175928414000055, -4.537189749999925, 0.0 ], [ 120.174442173000102, -4.538230118999934, 0.0 ], [ 120.172955930000057, -4.539448837999942, 0.0 ], [ 120.172286747000044, -4.539952523999943, 0.0 ], [ 120.171573724000041, -4.54048920799994, 0.0 ], [ 120.170236106000061, -4.542153798999948, 0.0 ], [ 120.16985782800009, -4.542929756999968, 0.0 ], [ 120.169870024000033, -4.542883348999965, 0.0 ], [ 120.169991720000098, -4.542167380999956, 0.0 ], [ 120.169958093000105, -4.541384068999946, 0.0 ], [ 120.169908581000072, -4.541198877999932, 0.0 ], [ 120.169862607000027, -4.541033780999953, 0.0 ], [ 120.169809157000032, -4.540853007999942, 0.0 ], [ 120.169814955000106, -4.54070749899995, 0.0 ], [ 120.169893928000079, -4.540574732999971, 0.0 ], [ 120.170060553000098, -4.540437219999944, 0.0 ], [ 120.170445945000097, -4.540214833999926, 0.0 ], [ 120.169658404000074, -4.540306777999945, 0.0 ], [ 120.167946495000024, -4.540483840999968, 0.0 ], [ 120.167289639000046, -4.540691702999936, 0.0 ], [ 120.166416736000087, -4.54096793399998, 0.0 ], [ 120.164825388000054, -4.541574301999958, 0.0 ], [ 120.163234274000047, -4.542119405999927, 0.0 ], [ 120.16143718, -4.542910394999979, 0.0 ], [ 120.16075097800001, -4.542993631999934, 0.0 ], [ 120.159979796000016, -4.543060450999974, 0.0 ], [ 120.159266749000039, -4.543172837999975, 0.0 ], [ 120.158599854000045, -4.543239323999956, 0.0 ], [ 120.157794678000073, -4.543397423999977, 0.0 ], [ 120.157219190000092, -4.543602507999935, 0.0 ], [ 120.156551392000097, -4.543899384999975, 0.0 ], [ 120.155998078000039, -4.544311909999976, 0.0 ], [ 120.155674364000106, -4.544794458999945, 0.0 ], [ 120.155326394000099, -4.545599465999942, 0.0 ], [ 120.155115934000037, -4.546091277999949, 0.0 ], [ 120.155001592000076, -4.546358482999949, 0.0 ], [ 120.154699956000059, -4.547071512999935, 0.0 ], [ 120.15433026200003, -4.547553878999963, 0.0 ], [ 120.153685448000033, -4.547850840999956, 0.0 ], [ 120.153110140000081, -4.548009839999963, 0.0 ], [ 120.152988199000106, -4.548044237999932, 0.0 ], [ 120.152143598000066, -4.548282487999927, 0.0 ], [ 120.151131170000099, -4.54853191199993, 0.0 ], [ 120.14944192300004, -4.549000937999949, 0.0 ], [ 120.148751227000048, -4.549274671999967, 0.0 ], [ 120.147991203000061, -4.549640287999978, 0.0 ], [ 120.14759915500008, -4.549961282999959, 0.0 ], [ 120.147091899000088, -4.550350937999951, 0.0 ], [ 120.14663310800006, -4.550717637999981, 0.0 ], [ 120.146468428000048, -4.550991134999947, 0.0 ], [ 120.14605627800006, -4.551693, 0.0 ], [ 120.145644351000101, -4.552336238999942, 0.0 ], [ 120.145632065000086, -4.552348456999937, 0.0 ], [ 120.144822350000027, -4.55315372299998, 0.0 ], [ 120.144394423000108, -4.553380840999978, 0.0 ], [ 120.143542794000041, -4.553832832999944, 0.0 ] ] ] ] } }
]
}
