{
"type": "FeatureCollection",
"name": "WP_Cangadi",
"crs": { "type": "name", "properties": { "name": "urn:ogc:def:crs:OGC:1.3:CRS84" } },
"features": [
{ "type": "Feature", "properties": { "Status": "Batas Indikatif", "Desa": "Galung", "Kecamatan": "Liliriaja", "Kabupaten": "Soppeng", "Provinsi": "Sulawesi Selatan", "Luas Km2": 5.2 }, "geometry": { "type": "MultiPolygon", "coordinates": [ [ [ [ 119.944838417332534, -4.391660416706532, 0.0 ], [ 119.944875072763068, -4.391581793464231, 0.0 ], [ 119.944915273931983, -4.391458097559894, 0.0 ], [ 119.945243068078469, -4.39129110808904, 0.0 ], [ 119.945793514852767, -4.390901465990379, 0.0 ], [ 119.946050183854268, -4.390697367748224, 0.0 ], [ 119.946210988529884, -4.390539655470195, 0.0 ], [ 119.94637797800074, -4.390224230914137, 0.0 ], [ 119.9466191850142, -4.390156198166752, 0.0 ], [ 119.946965533546347, -4.390301540854347, 0.0 ], [ 119.947079952257852, -4.39033555722804, 0.0 ], [ 119.947336621259353, -4.390332464830432, 0.0 ], [ 119.947605659851291, -4.390168567757185, 0.0 ], [ 119.947584013068024, -4.390001578286331, 0.0 ], [ 119.947729355755627, -4.389822219225043, 0.0 ], [ 119.947924176804946, -4.389621213380495, 0.0 ], [ 119.948276710132305, -4.389370729174213, 0.0 ], [ 119.948511732350539, -4.389138799353582, 0.0 ], [ 119.948814787316167, -4.388866668364042, 0.0 ], [ 119.949182782631596, -4.388585260181674, 0.0 ], [ 119.949046717136824, -4.388412085915603, 0.0 ], [ 119.949120934679428, -4.388226542059098, 0.0 ], [ 119.949433266837872, -4.387960595864774, 0.0 ], [ 119.94953531595894, -4.387586415754157, 0.0 ], [ 119.949795077358047, -4.387184404065063, 0.0 ], [ 119.949915680864777, -4.386967936232474, 0.0 ], [ 119.950172349866264, -4.386887533894655, 0.0 ], [ 119.950271306589741, -4.386847332725746, 0.0 ], [ 119.950231105420826, -4.386652511676416, 0.0 ], [ 119.950082670335632, -4.386646326881198, 0.0 ], [ 119.950064115949971, -4.3863896578797, 0.0 ], [ 119.950147610685406, -4.385962907009739, 0.0 ], [ 119.950243475011263, -4.385613466079987, 0.0 ], [ 119.950039376769112, -4.385554710525427, 0.0 ], [ 119.949992990804986, -4.385341335090446, 0.0 ], [ 119.950051746359549, -4.385004263751129, 0.0 ], [ 119.950169257468659, -4.384716670773546, 0.0 ], [ 119.950200181444714, -4.384562050893125, 0.0 ], [ 119.949754876189104, -4.384382691831838, 0.0 ], [ 119.949408527656956, -4.384286827505976, 0.0 ], [ 119.949127119474596, -4.384194055577724, 0.0 ], [ 119.949239991987312, -4.383948209967856, 0.0 ], [ 119.949382242277295, -4.38367453277951, 0.0 ], [ 119.94954227385351, -4.383553929272784, 0.0 ], [ 119.949635045781775, -4.383454199449911, 0.0 ], [ 119.94977265747535, -4.383444922257086, 0.0 ], [ 119.949904084373713, -4.383381528106113, 0.0 ], [ 119.949947377940205, -4.383236185418517, 0.0 ], [ 119.949737094902844, -4.383168152671132, 0.0 ], [ 119.949502072684595, -4.383081565538097, 0.0 ], [ 119.949540727654707, -4.382710477825088, 0.0 ], [ 119.949825228234673, -4.382636260282486, 0.0 ], [ 119.950023141681612, -4.382623890692052, 0.0 ], [ 119.950394229394632, -4.3824940099925, 0.0 ], [ 119.950833349855017, -4.382289911750344, 0.0 ], [ 119.950889013011974, -4.382079628712972, 0.0 ], [ 119.951037448097182, -4.381795128132999, 0.0 ], [ 119.951031263301985, -4.381640508252578, 0.0 ], [ 119.950449892551603, -4.38134363808217, 0.0 ], [ 119.950431338165956, -4.38134363808217, 0.0 ], [ 119.949868521801221, -4.381269420539568, 0.0 ], [ 119.94933044461736, -4.380984919959594, 0.0 ], [ 119.948916063337833, -4.380582908270501, 0.0 ], [ 119.948105855164428, -4.379933504772735, 0.0 ], [ 119.948037822417035, -4.380038646291421, 0.0 ], [ 119.947357494943191, -4.379717036940146, 0.0 ], [ 119.94735131014798, -4.379710852144929, 0.0 ], [ 119.946683352264557, -4.379413981974522, 0.0 ], [ 119.946516362793702, -4.379191329346717, 0.0 ], [ 119.946462245835576, -4.378998054496191, 0.0 ], [ 119.946337003732467, -4.378815603037295, 0.0 ], [ 119.946244231804215, -4.378653252162853, 0.0 ], [ 119.946513270396139, -4.378425960938635, 0.0 ], [ 119.94670654524667, -4.378461523511132, 0.0 ], [ 119.946853434133061, -4.378500178481237, 0.0 ], [ 119.947072994363253, -4.378268248660607, 0.0 ], [ 119.947066809568028, -4.378138367961052, 0.0 ], [ 119.947085363953676, -4.377788927031301, 0.0 ], [ 119.947224521846053, -4.377547720017845, 0.0 ], [ 119.947499745233202, -4.377195186690487, 0.0 ], [ 119.947570870378186, -4.376889039327254, 0.0 ], [ 119.947502837630807, -4.376768435820526, 0.0 ], [ 119.947471913654724, -4.376422087288384, 0.0 ], [ 119.94776878382514, -4.376360239336217, 0.0 ], [ 119.94792958850077, -4.376490120035769, 0.0 ], [ 119.948115132357273, -4.376193249865362, 0.0 ], [ 119.948350154575522, -4.376292206588832, 0.0 ], [ 119.949172732339349, -4.376768435820527, 0.0 ], [ 119.949401569762372, -4.376712772663575, 0.0 ], [ 119.949618037594959, -4.375933488466256, 0.0 ], [ 119.949754103089731, -4.375407780872825, 0.0 ], [ 119.949815951041899, -4.375259345787621, 0.0 ], [ 119.949970570922318, -4.374603757494638, 0.0 ], [ 119.949961293729501, -4.374408936445308, 0.0 ], [ 119.949871614198855, -4.374303794926622, 0.0 ], [ 119.949853059813208, -4.373941984406438, 0.0 ], [ 119.950016956886444, -4.373966723587305, 0.0 ], [ 119.950406598985097, -4.374139897853375, 0.0 ], [ 119.950536479684658, -4.373941984406438, 0.0 ], [ 119.950585958046389, -4.373555434705386, 0.0 ], [ 119.950681822372246, -4.37323691775172, 0.0 ], [ 119.950641621203346, -4.373131776233035, 0.0 ], [ 119.950381859804239, -4.372952417171748, 0.0 ], [ 119.950214870333383, -4.372902938810013, 0.0 ], [ 119.95038240501205, -4.372551913769007, 0.0 ], [ 119.951112399000067, -4.373021295999933, 0.0 ], [ 119.950824434000083, -4.374327429999937, 0.0 ], [ 119.951061249000077, -4.37439016999997, 0.0 ], [ 119.951211808000039, -4.374424507999947, 0.0 ], [ 119.951230853603178, -4.374420130136912, 0.0 ], [ 119.951209849263904, -4.374609169190442, 0.0 ], [ 119.951234588444777, -4.374844191408681, 0.0 ], [ 119.951234588444777, -4.37517817035039, 0.0 ], [ 119.951321175577817, -4.375425562159063, 0.0 ], [ 119.951308805987381, -4.375846128233808, 0.0 ], [ 119.951593306567332, -4.376155367994648, 0.0 ], [ 119.951383023529957, -4.376736738745031, 0.0 ], [ 119.951642784929064, -4.377194413591076, 0.0 ], [ 119.951741741652526, -4.37744180539975, 0.0 ], [ 119.952088090184674, -4.377540762123219, 0.0 ], [ 119.952570504211593, -4.377565501304086, 0.0 ], [ 119.952632352163761, -4.377887110655362, 0.0 ], [ 119.952521025849848, -4.378344785501407, 0.0 ], [ 119.95245917789768, -4.378740612395284, 0.0 ], [ 119.952267449245994, -4.379062221746559, 0.0 ], [ 119.951871622352115, -4.379439494254786, 0.0 ], [ 119.951667524109965, -4.379872429919964, 0.0 ], [ 119.951587121772135, -4.380268256813842, 0.0 ], [ 119.9517912200143, -4.380707377274237, 0.0 ], [ 119.951995318256451, -4.380911475516393, 0.0 ], [ 119.952372590764682, -4.381362965567221, 0.0 ], [ 119.952038611822971, -4.38169694450893, 0.0 ], [ 119.951760296038216, -4.382105140993241, 0.0 ], [ 119.951679893700415, -4.382729805310142, 0.0 ], [ 119.951661339314768, -4.38355238307398, 0.0 ], [ 119.951512904229531, -4.383935840377424, 0.0 ], [ 119.951525273819968, -4.384263634523916, 0.0 ], [ 119.951667524109965, -4.384795526912564, 0.0 ], [ 119.951345914758676, -4.38527175614426, 0.0 ], [ 119.951178925287834, -4.385444930410332, 0.0 ], [ 119.951407762710858, -4.386094333908098, 0.0 ], [ 119.951389208325196, -4.386502530392408, 0.0 ], [ 119.951451056277364, -4.386910726876719, 0.0 ], [ 119.951673708905176, -4.38706534675714, 0.0 ], [ 119.952069535799055, -4.387226151432777, 0.0 ], [ 119.952081905389491, -4.387560130374487, 0.0 ], [ 119.951853067966468, -4.387931218087497, 0.0 ], [ 119.951599491362572, -4.387912663701846, 0.0 ], [ 119.951426317096505, -4.388172425100954, 0.0 ], [ 119.951240773240002, -4.388524958428313, 0.0 ], [ 119.950962457455248, -4.388580621585264, 0.0 ], [ 119.950727435236999, -4.388611545561349, 0.0 ], [ 119.95033160834312, -4.388426001704843, 0.0 ], [ 119.950108955715322, -4.38880327421307, 0.0 ], [ 119.949762607183175, -4.389298057830417, 0.0 ], [ 119.949304932337128, -4.389761917471679, 0.0 ], [ 119.949020431757148, -4.390046418051654, 0.0 ], [ 119.948661713634579, -4.390207222727291, 0.0 ], [ 119.948142190836364, -4.390448429740748, 0.0 ], [ 119.94782058148509, -4.39064015839247, 0.0 ], [ 119.94782058148509, -4.390943213358095, 0.0 ], [ 119.947123142171492, -4.391759085762686, 0.0 ], [ 119.946468136000021, -4.391638610999962, 0.0 ], [ 119.946355500000095, -4.391187868999964, 0.0 ], [ 119.946026215000074, -4.391384121999977, 0.0 ], [ 119.945385643, -4.392059204999953, 0.0 ], [ 119.944838417332534, -4.391660416706532, 0.0 ] ] ] ] } }
]
}
