{
"type": "FeatureCollection",
"name": "WP_Donridonri",
"crs": { "type": "name", "properties": { "name": "urn:ogc:def:crs:OGC:1.3:CRS84" } },
"features": [
{ "type": "Feature", "properties": { "Status": "Batas Indikatif", "Desa": "Donri Donri", "Kecamatan": "Donri-Donri", "Kabupaten": "Soppeng", "Provinsi": "Sulawesi Selatan", "Luas M2": 6.04 }, "geometry": { "type": "MultiPolygon", "coordinates": [ [ [ [ 119.868989433388705, -4.269093483010761, 0.0 ], [ 119.869621412767913, -4.269064756675343, 0.0 ], [ 119.870626420604651, -4.268782098221261, 0.0 ], [ 119.873531521382716, -4.26645801759881, 0.0 ], [ 119.87401832205363, -4.265955513680443, 0.0 ], [ 119.873531880573125, -4.264750991919182, 0.0 ], [ 119.873767688000044, -4.264641443999949, 0.0 ], [ 119.874023609, -4.264429827999948, 0.0 ], [ 119.874172559000044, -4.264141704999929, 0.0 ], [ 119.874138581933835, -4.263717788769655, 0.0 ], [ 119.874458012982174, -4.263596100751235, 0.0 ], [ 119.874403051616113, -4.263494029642816, 0.0 ], [ 119.87415965128065, -4.263242777683632, 0.0 ], [ 119.873892696074023, -4.263038635466795, 0.0 ], [ 119.873515818135246, -4.262928712734652, 0.0 ], [ 119.873076127206673, -4.262818790002509, 0.0 ], [ 119.87268354602044, -4.262740273765264, 0.0 ], [ 119.872714952515338, -4.262473318558631, 0.0 ], [ 119.872746359010236, -4.262245621470621, 0.0 ], [ 119.873021165840598, -4.262331989331591, 0.0 ], [ 119.873280269423503, -4.262214214975723, 0.0 ], [ 119.873437301897994, -4.262017924382611, 0.0 ], [ 119.873931954192642, -4.261923704897916, 0.0 ], [ 119.874340238626317, -4.262119995491029, 0.0 ], [ 119.874787781178611, -4.262292731212968, 0.0 ], [ 119.874882000663305, -4.26203362763006, 0.0 ], [ 119.874960516900543, -4.261570381830314, 0.0 ], [ 119.875101846127592, -4.261546826959139, 0.0 ], [ 119.87594982148984, -4.261664601315005, 0.0 ], [ 119.876091150716888, -4.261939408145363, 0.0 ], [ 119.876287441309998, -4.261955111392812, 0.0 ], [ 119.876318847804896, -4.262394802321384, 0.0 ], [ 119.876028337727092, -4.262551834795874, 0.0 ], [ 119.875934118242398, -4.262897306239751, 0.0 ], [ 119.87579278901535, -4.263462623147915, 0.0 ], [ 119.875588646798519, -4.26378453972062, 0.0 ], [ 119.875117549375048, -4.264020088432355, 0.0 ], [ 119.875266730225817, -4.264208527401743, 0.0 ], [ 119.875643608164594, -4.264750289438733, 0.0 ], [ 119.875675014659492, -4.264962283279295, 0.0 ], [ 119.876310996181175, -4.265229238485928, 0.0 ], [ 119.876028337727092, -4.26581025864154, 0.0 ], [ 119.875769234144187, -4.266375575549704, 0.0 ], [ 119.875494427313825, -4.266257801193836, 0.0 ], [ 119.874944813653102, -4.266022252482101, 0.0 ], [ 119.874858445792142, -4.266234246322663, 0.0 ], [ 119.874583638961781, -4.266493349905571, 0.0 ], [ 119.874583638961781, -4.266776008359653, 0.0 ], [ 119.874458012982188, -4.267278512278021, 0.0 ], [ 119.874395199992392, -4.267576873979552, 0.0 ], [ 119.874520825971985, -4.267828125938736, 0.0 ], [ 119.874740671436271, -4.268173597382614, 0.0 ], [ 119.874842742544686, -4.268644694806083, 0.0 ], [ 119.874512974348264, -4.268966611378787, 0.0 ], [ 119.87396336068754, -4.268644694806083, 0.0 ], [ 119.87361003761994, -4.268597585063736, 0.0 ], [ 119.873476560016627, -4.268895946765267, 0.0 ], [ 119.873507966511525, -4.269249269832869, 0.0 ], [ 119.873350934037035, -4.269610444524195, 0.0 ], [ 119.872879836613563, -4.269720367256339, 0.0 ], [ 119.872722804139073, -4.269822438364757, 0.0 ], [ 119.872424442437534, -4.270372052025472, 0.0 ], [ 119.872322371329119, -4.270693968598176, 0.0 ], [ 119.872338074576575, -4.27125928550634, 0.0 ], [ 119.872165338854629, -4.27148698259435, 0.0 ], [ 119.872573623288304, -4.271761789424708, 0.0 ], [ 119.873555076253865, -4.272099409244861, 0.0 ], [ 119.874041876924792, -4.272170073858381, 0.0 ], [ 119.874450161358467, -4.272617616410677, 0.0 ], [ 119.874104689914589, -4.27288457161731, 0.0 ], [ 119.873091830454129, -4.272868868369861, 0.0 ], [ 119.872707100891617, -4.27281390700379, 0.0 ], [ 119.872259558339323, -4.273120120329045, 0.0 ], [ 119.871945493390342, -4.273127971952769, 0.0 ], [ 119.871725647926056, -4.273167230071392, 0.0 ], [ 119.871364473234735, -4.273449888525474, 0.0 ], [ 119.871301660244939, -4.273881727830322, 0.0 ], [ 119.871356621611, -4.274297863887719, 0.0 ], [ 119.871178505000103, -4.274706547999926, 0.0 ], [ 119.871203838000042, -4.27499765999994, 0.0 ], [ 119.871204818000024, -4.275260627999955, 0.0 ], [ 119.871133822000047, -4.275380428999938, 0.0 ], [ 119.870919557000093, -4.275395574999948, 0.0 ], [ 119.870695659000035, -4.275382072999946, 0.0 ], [ 119.870442988000036, -4.275316081999961, 0.0 ], [ 119.870393214000046, -4.275310594999951, 0.0 ], [ 119.870284118000086, -4.275298563999968, 0.0 ], [ 119.870233343000109, -4.27529296299997, 0.0 ], [ 119.870085586000073, -4.275338304999934, 0.0 ], [ 119.870106001000067, -4.275294678999956, 0.0 ], [ 119.870010783000112, -4.275286655999935, 0.0 ], [ 119.869962169000019, -4.275341152999943, 0.0 ], [ 119.869918917000064, -4.275362548999965, 0.0 ], [ 119.869849849000047, -4.275353856999971, 0.0 ], [ 119.869788830000061, -4.27539631999997, 0.0 ], [ 119.869724457000075, -4.275451820999933, 0.0 ], [ 119.869689362000031, -4.275517985999954, 0.0 ], [ 119.869518993000042, -4.275699879999934, 0.0 ], [ 119.869500097000014, -4.27572005199994, 0.0 ], [ 119.869441292000033, -4.275782832999937, 0.0 ], [ 119.869424032999817, -4.275802291336785, 0.0 ], [ 119.86938303524245, -4.275843289094143, 0.0 ], [ 119.869364819000111, -4.275864480999928, 0.0 ], [ 119.869316069000092, -4.275916525999946, 0.0 ], [ 119.86928325100007, -4.275951566999936, 0.0 ], [ 119.869047043000023, -4.27622561499993, 0.0 ], [ 119.868842486000062, -4.277125143999967, 0.0 ], [ 119.867835597000067, -4.276678397999945, 0.0 ], [ 119.868007602000034, -4.276157164999972, 0.0 ], [ 119.867677541000035, -4.276061698999968, 0.0 ], [ 119.867966440000032, -4.275322065999944, 0.0 ], [ 119.868561443565127, -4.275110506943204, 0.0 ], [ 119.868734179287074, -4.274733629004428, 0.0 ], [ 119.868985431246259, -4.274184015343714, 0.0 ], [ 119.868985431246259, -4.274168312096265, 0.0 ], [ 119.869001134493701, -4.273712917920244, 0.0 ], [ 119.868624256554924, -4.273257523744223, 0.0 ], [ 119.867870500677384, -4.273100491269734, 0.0 ], [ 119.867807687687588, -4.273100491269734, 0.0 ], [ 119.866928305830442, -4.273021975032488, 0.0 ], [ 119.865844781756465, -4.272315328897283, 0.0 ], [ 119.865373684332994, -4.272016967195754, 0.0 ], [ 119.864996806394217, -4.271781418484018, 0.0 ], [ 119.864211644021765, -4.271420243792692, 0.0 ], [ 119.863501824566015, -4.271352641939763, 0.0 ], [ 119.863511228000107, -4.271285279999972, 0.0 ], [ 119.863524933, -4.271177605999981, 0.0 ], [ 119.863541149000071, -4.271091147999925, 0.0 ], [ 119.863562561000094, -4.271000422999975, 0.0 ], [ 119.863583683000115, -4.270927294999979, 0.0 ], [ 119.863595013, -4.270888062999973, 0.0 ], [ 119.863617175000059, -4.270818601999963, 0.0 ], [ 119.8636950450001, -4.270640297999932, 0.0 ], [ 119.863721880000071, -4.270562635999966, 0.0 ], [ 119.86374512000009, -4.270512226999926, 0.0 ], [ 119.863776828849396, -4.270433286288225, 0.0 ], [ 119.865122432373809, -4.270792113894732, 0.0 ], [ 119.865986110983499, -4.271074772348814, 0.0 ], [ 119.866991118820238, -4.271090475596263, 0.0 ], [ 119.867650655213097, -4.271043365853916, 0.0 ], [ 119.86793331366718, -4.270949146369222, 0.0 ], [ 119.868373004595739, -4.271059069101364, 0.0 ], [ 119.868655663049822, -4.270368126213609, 0.0 ], [ 119.868542465000019, -4.270012134999945, 0.0 ], [ 119.868603729000029, -4.269904129999929, 0.0 ], [ 119.868619436000017, -4.269860815999948, 0.0 ], [ 119.868680448000077, -4.269734571999948, 0.0 ], [ 119.868703265000022, -4.269671416999927, 0.0 ], [ 119.86871834100009, -4.269629183999939, 0.0 ], [ 119.868763548000061, -4.269517877999931, 0.0 ], [ 119.868779702000097, -4.269478651999975, 0.0 ], [ 119.868839521000041, -4.269356289999962, 0.0 ], [ 119.868877087000101, -4.269281775999957, 0.0 ], [ 119.868878303000088, -4.269279575999974, 0.0 ], [ 119.868949215000043, -4.269151291999947, 0.0 ], [ 119.868955640000081, -4.269142509999938, 0.0 ], [ 119.868989433388705, -4.269093483010761, 0.0 ] ] ] ] } }
]
}
