{
"type": "FeatureCollection",
"name": "WP_Taccipi",
"crs": { "type": "name", "properties": { "name": "urn:ogc:def:crs:OGC:1.3:CRS84" } },
"features": [
{ "type": "Feature", "properties": { "id": null, "Name": "Taccipi", "Luas_Km2": 2.1 }, "geometry": { "type": "MultiPolygon", "coordinates": [ [ [ [ 120.17498034432532, -4.517893931596583 ], [ 120.175589260159057, -4.516676099929108 ], [ 120.176965939435334, -4.516040709493904 ], [ 120.178660313929214, -4.515299420652833 ], [ 120.179216280560013, -4.514293385797093 ], [ 120.179586924980555, -4.513022604926686 ], [ 120.180222315415762, -4.512016570070946 ], [ 120.180884180452423, -4.51114290822254 ], [ 120.181387197880298, -4.510110398765334 ], [ 120.181201875670027, -4.509726517044065 ], [ 120.181095977264164, -4.509362491273896 ], [ 120.181321011376625, -4.508925660349693 ], [ 120.181400435181033, -4.508568253229891 ], [ 120.181162163767823, -4.508303507215222 ], [ 120.180910655053893, -4.508038761200554 ], [ 120.180923892354627, -4.507681354080752 ], [ 120.181658562545337, -4.506986395792248 ], [ 120.182029206965879, -4.506456903762912 ], [ 120.182320427582013, -4.505834750628441 ], [ 120.182532224393753, -4.505371445102772 ], [ 120.182135105371742, -4.504669868163901 ], [ 120.181407053831407, -4.503941816623563 ], [ 120.180626053088133, -4.503637358706694 ], [ 120.180056849156614, -4.503081392075888 ], [ 120.178574271474474, -4.502657798452419 ], [ 120.176403354154189, -4.502446001640684 ], [ 120.175609116110181, -4.501598814393746 ], [ 120.174629555855915, -4.501042847762942 ], [ 120.173861792413376, -4.500778101748273 ], [ 120.172855757557642, -4.500751627146807 ], [ 120.171876197303362, -4.500433931929205 ], [ 120.171664400491636, -4.499427897073465 ], [ 120.171558502085759, -4.498448336819193 ], [ 120.171293756071094, -4.497680573376655 ], [ 120.170817213244689, -4.497521725767854 ], [ 120.169652330780153, -4.496806911528249 ], [ 120.169016940344946, -4.496317131401113 ], [ 120.168063854692136, -4.495655266364442 ], [ 120.167428464256943, -4.495165486237306 ], [ 120.167190192843734, -4.494463909298434 ], [ 120.166951921430538, -4.494040315674965 ], [ 120.166793073821736, -4.49312694192436 ], [ 120.167124006340075, -4.492928382413359 ], [ 120.16782558327894, -4.494583045005036 ], [ 120.16859334672148, -4.495099299733639 ], [ 120.169255211758141, -4.49533757114684 ], [ 120.169970025997756, -4.495893537777643 ], [ 120.170525992628555, -4.49630389410038 ], [ 120.171148145763027, -4.496581877415781 ], [ 120.172035044912164, -4.496978996437783 ], [ 120.172604248843697, -4.497376115459786 ], [ 120.173451436090645, -4.498686608232395 ], [ 120.173994165420723, -4.499242574863199 ], [ 120.174682505058854, -4.499825016095468 ], [ 120.175834150222656, -4.500328033523338 ], [ 120.176946083484268, -4.500328033523338 ], [ 120.1777932707312, -4.500500118432873 ], [ 120.178905203992812, -4.500857525552675 ], [ 120.179633255533147, -4.501122271567343 ], [ 120.1809569856065, -4.501810611205481 ], [ 120.182135105371771, -4.502406289738484 ], [ 120.183088191024581, -4.503160815880289 ], [ 120.184133937782519, -4.503518223000092 ], [ 120.184584006007455, -4.503994765826494 ], [ 120.185113498036785, -4.504140376134562 ], [ 120.185007599630922, -4.503213765083223 ], [ 120.184967887728718, -4.502432764339951 ], [ 120.185298820247056, -4.501784136604014 ], [ 120.185682701968318, -4.501228169973211 ], [ 120.185629752765394, -4.500632491440207 ], [ 120.185682701968318, -4.499944151802069 ], [ 120.186225431298396, -4.499096964555131 ], [ 120.186225431298396, -4.49905725265293 ], [ 120.186556363816734, -4.498104167000124 ], [ 120.186754923327726, -4.49738935276052 ], [ 120.187019669342405, -4.496092097288646 ], [ 120.187655059777597, -4.495496418755642 ], [ 120.187972754995201, -4.49688633533265 ], [ 120.188409585919402, -4.497071657542917 ], [ 120.189084688256798, -4.497442301963453 ], [ 120.189706841391271, -4.497746759880322 ], [ 120.18997158740595, -4.498077692398657 ], [ 120.18998482470667, -4.498580709826527 ], [ 120.189773027894944, -4.498660133630927 ], [ 120.189124400159002, -4.498554235225059 ], [ 120.188674331934067, -4.49863365902946 ], [ 120.188316924814274, -4.498991066149262 ], [ 120.188052178799595, -4.499507320877866 ], [ 120.187893331190793, -4.50022213511747 ], [ 120.187430025665122, -4.500420694628471 ], [ 120.187152042349723, -4.500936949357074 ], [ 120.187191754251927, -4.501823848506214 ], [ 120.186993194740921, -4.502684273053886 ], [ 120.187125567748254, -4.503293188887623 ], [ 120.187588873273924, -4.503955053924294 ], [ 120.188158077205458, -4.504391884848496 ], [ 120.189415620775151, -4.5050272752837 ], [ 120.189680366789815, -4.505424394305702 ], [ 120.19019662151841, -4.505662665718904 ], [ 120.190368706427947, -4.505000800682233 ], [ 120.190580503239687, -4.504709580066098 ], [ 120.191282080178553, -4.504643393562431 ], [ 120.191930707914494, -4.5050669871859 ], [ 120.191930707914494, -4.505795038726238 ], [ 120.191904233313025, -4.50653632756731 ], [ 120.191957182515964, -4.506814310882711 ], [ 120.192433725342369, -4.506827548183445 ], [ 120.193545658603966, -4.507132006100314 ], [ 120.196021033841149, -4.507409989415715 ], [ 120.196762322682218, -4.507409989415715 ], [ 120.197688933733559, -4.507674735430383 ], [ 120.198827341596626, -4.50778063383625 ], [ 120.200230495474372, -4.50820422745972 ], [ 120.201289479533045, -4.508601346481722 ], [ 120.202374938193188, -4.50878666869199 ], [ 120.205975483992674, -4.508363075068521 ], [ 120.206955044246953, -4.508071854452386 ], [ 120.209178910770163, -4.507860057640651 ], [ 120.209178083438843, -4.507860057640656 ], [ 120.209178910770135, -4.507860057640655 ], [ 120.209178910770163, -4.507860057640651 ], [ 120.209744805376488, -4.50788798007189 ], [ 120.209365887642988, -4.508184164675805 ], [ 120.209028982000063, -4.508437640999944 ], [ 120.208798338374052, -4.508506823881182 ], [ 120.208149876000107, -4.508717852999951 ], [ 120.207774441000083, -4.508969757999978 ], [ 120.207354239000097, -4.509476154999959 ], [ 120.207216480936452, -4.509734583524221 ], [ 120.205366568158908, -4.510110398765333 ], [ 120.202930904823958, -4.510375144780001 ], [ 120.200495241489008, -4.510692839997604 ], [ 120.199462732031805, -4.51071931459907 ], [ 120.197768357537925, -4.509925076555065 ], [ 120.194935575180963, -4.509289686119861 ], [ 120.192605810251891, -4.50897199090226 ], [ 120.19146740238881, -4.508733719489058 ], [ 120.189931875503746, -4.508442498872923 ], [ 120.188846416843603, -4.508336600467056 ], [ 120.187708008980522, -4.509077889308127 ], [ 120.187416788364388, -4.510110398765334 ], [ 120.186437228110123, -4.51063989079467 ], [ 120.185590040863175, -4.511089959019606 ], [ 120.1836573949561, -4.511116433621073 ], [ 120.182518987093033, -4.511063484418139 ], [ 120.18291610611503, -4.512890231919351 ], [ 120.182571936295957, -4.514002165180957 ], [ 120.181168782418226, -4.514081588985358 ], [ 120.180798137997684, -4.515352369855766 ], [ 120.179977425352206, -4.516199557102705 ], [ 120.178547796873005, -4.516940845943775 ], [ 120.177303490604061, -4.517867456995114 ], [ 120.176456303357128, -4.518555796633253 ], [ 120.175159047885245, -4.518767593444987 ], [ 120.17498034432532, -4.517893931596583 ] ] ] ] } }
]
}
